$$SOE
2461302.500000000, A.D. 2026-Sep-19 00:00:00.0000, 3.270303569109880E+08, 3.178472412475672E+08, -8.548839240447943E+07,
2461309.500000000, A.D. 2026-Sep-26 00:00:00.0000, 3.205571984931846E+08, 3.241553529586931E+08, -8.393214461433840E+07,
2461316.500000000, A.D. 2026-Oct-03 00:00:00.0000, 3.139277995654728E+08, 3.303054490505019E+08, -8.233498598778836E+07,
2461323.500000000, A.D. 2026-Oct-10 00:00:00.0000, 3.071449115096140E+08, 3.362940260612971E+08, -8.069756942926003E+07,
2461330.500000000, A.D. 2026-Oct-17 00:00:00.0000, 3.002113359913119E+08, 3.421175909804697E+08, -7.902056051133262E+07,
2461337.500000000, A.D. 2026-Oct-24 00:00:00.0000, 2.931299268130050E+08, 3.477726605298219E+08, -7.730463795187005E+07,
2461344.500000000, A.D. 2026-Oct-31 00:00:00.0000, 2.859035919493671E+08, 3.532557603608171E+08, -7.555049413793482E+07,
2461351.500000000, A.D. 2026-Nov-07 00:00:00.0000, 2.785352961066077E+08, 3.585634242439662E+08, -7.375883572147398E+07,
2461358.500000000, A.D. 2026-Nov-14 00:00:00.0000, 2.710280640079979E+08, 3.636921941391550E+08, -7.193038423231354E+07,
2461365.500000000, A.D. 2026-Nov-21 00:00:00.0000, 2.633849825929996E+08, 3.686386218291882E+08, -7.006587648542790E+07,
2461372.500000000, A.D. 2026-Nov-28 00:00:00.0000, 2.556092011288061E+08, 3.733992691126440E+08, -6.816606493576780E+07,
2461379.500000000, A.D. 2026-Dec-05 00:00:00.0000, 2.477039328548216E+08, 3.779707059088657E+08, -6.623171836729397E+07,
2461386.500000000, A.D. 2026-Dec-12 00:00:00.0000, 2.396724583284551E+08, 3.823495093933985E+08, -6.426362267843945E+07,
2461393.500000000, A.D. 2026-Dec-19 00:00:00.0000, 2.315181285873481E+08, 3.865322641766364E+08, -6.226258159111401E+07,
2461400.500000000, A.D. 2026-Dec-26 00:00:00.0000, 2.232443679882691E+08, 3.905155626646714E+08, -6.022941734188104E+07,
2461407.500000000, A.D. 2027-Jan-02 00:00:00.0000, 2.148546770011447E+08, 3.942960054184099E+08, -5.816497139687251E+07,
2461414.500000000, A.D. 2027-Jan-09 00:00:00.0000, 2.063526350770467E+08, 3.978702015379975E+08, -5.607010519996887E+07,
2461421.500000000, A.D. 2027-Jan-16 00:00:00.0000, 1.977419036263718E+08, 4.012347690885000E+08, -5.394570095706338E+07,
2461428.500000000, A.D. 2027-Jan-23 00:00:00.0000, 1.890262291532372E+08, 4.043863355349384E+08, -5.179266246411285E+07,
2461435.500000000, A.D. 2027-Jan-30 00:00:00.0000, 1.802094467332768E+08, 4.073215381475509E+08, -4.961191600037850E+07,
2461442.500000000, A.D. 2027-Feb-06 00:00:00.0000, 1.712954842590127E+08, 4.100370247273242E+08, -4.740441129849738E+07,
2461449.500000000, A.D. 2027-Feb-13 00:00:00.0000, 1.622883669927455E+08, 4.125294558818782E+08, -4.517112245010816E+07,
2461456.500000000, A.D. 2027-Feb-20 00:00:00.0000, 1.531922200622402E+08, 4.147955080690842E+08, -4.291304859482552E+07,
2461463.500000000, A.D. 2027-Feb-27 00:00:00.0000, 1.440112702915992E+08, 4.168318742059222E+08, -4.063121478296393E+07,
2461470.500000000, A.D. 2027-Mar-06 00:00:00.0000, 1.347498503850003E+08, 4.186352637812680E+08, -3.832667313260640E+07,
2461477.500000000, A.D. 2027-Mar-13 00:00:00.0000, 1.254124038638832E+08, 4.202024045357803E+08, -3.600050396726398E+07,
2461484.500000000, A.D. 2027-Mar-20 00:00:00.0000, 1.160034896266123E+08, 4.215300448874427E+08, -3.365381689852494E+07,
2461491.500000000, A.D. 2027-Mar-27 00:00:00.0000, 1.065277863302536E+08, 4.226149565690584E+08, -3.128775191681398E+07,
2461498.500000000, A.D. 2027-Apr-03 00:00:00.0000, 9.699009679467787E+07, 4.234539374465929E+08, -2.890348051243085E+07,
2461505.500000000, A.D. 2027-Apr-10 00:00:00.0000, 8.739535248687701E+07, 4.240438145590609E+08, -2.650220683005004E+07,
2461512.500000000, A.D. 2027-Apr-17 00:00:00.0000, 7.774861810328543E+07, 4.243814473842469E+08, -2.408516885906541E+07,
2461519.500000000, A.D. 2027-Apr-24 00:00:00.0000, 6.805509632389036E+07, 4.244637312877467E+08, -2.165363967102253E+07,
2461526.500000000, A.D. 2027-May-01 00:00:00.0000, 5.832013303095039E+07, 4.242876012041274E+08, -1.920892872794336E+07,
2461533.500000000, A.D. 2027-May-08 00:00:00.0000, 4.854922329169726E+07, 4.238500363216912E+08, -1.675238322695976E+07,
2461540.500000000, A.D. 2027-May-15 00:00:00.0000, 3.874801660013229E+07, 4.231480667484290E+08, -1.428538926420513E+07,
2461547.500000000, A.D. 2027-May-22 00:00:00.0000, 2.892231980392059E+07, 4.221787795886006E+08, -1.180937288351393E+07,
2461554.500000000, A.D. 2027-May-29 00:00:00.0000, 1.907810105624391E+07, 4.209393229856068E+08, -9.325801434206545E+06,
2461561.500000000, A.D. 2027-Jun-05 00:00:00.0000, 9.221495661799904E+06, 4.194269112936817E+08, -6.836185060025692E+06,
2461568.500000000, A.D. 2027-Jun-12 00:00:00.0000, -6.411882062355579E+05, 4.176388318388108E+08, -4.342078095892251E+06,
2461575.500000000, A.D. 2027-Jun-19 00:00:00.0000, -1.050346426924494E+07, 4.155724523617953E+08, -1.845080413545787E+06,
2461582.500000000, A.D. 2027-Jun-26 00:00:00.0000, -2.035866312996595E+07, 4.132252289122618E+08, 6.531612426305115E+05,
2461589.500000000, A.D. 2027-Jul-03 00:00:00.0000, -3.019992737652622E+07, 4.105947142335026E+08, 3.150951924605340E+06,
2461596.500000000, A.D. 2027-Jul-10 00:00:00.0000, -4.002020679495645E+07, 4.076785666787461E+08, 5.646547159181207E+06,
2461603.500000000, A.D. 2027-Jul-17 00:00:00.0000, -4.981225368489600E+07, 4.044745596508953E+08, 8.138151637736440E+06,
2461610.500000000, A.D. 2027-Jul-24 00:00:00.0000, -5.956861815750650E+07, 4.009805915319242E+08, 1.062391790699032E+07,
2461617.500000000, A.D. 2027-Jul-31 00:00:00.0000, -6.928164304615672E+07, 3.971946963653607E+08, 1.310194505254731E+07,
2461624.500000000, A.D. 2027-Aug-07 00:00:00.0000, -7.894345868017662E+07, 3.931150564739144E+08, 1.557027749905497E+07,
2461631.500000000, A.D. 2027-Aug-14 00:00:00.0000, -8.854597987652977E+07, 3.887400167928481E+08, 1.802690412978065E+07,
2461638.500000000, A.D. 2027-Aug-21 00:00:00.0000, -9.808090458789814E+07, 3.840680975849037E+08, 2.046975740796685E+07,
2461645.500000000, A.D. 2027-Aug-28 00:00:00.0000, -1.075397108421860E+08, 3.790980067694573E+08, 2.289671229943612E+07,
2461652.500000000, A.D. 2027-Sep-04 00:00:00.0000, -1.169136532246815E+08, 3.738286544017938E+08, 2.530558532645792E+07,
2461659.500000000, A.D. 2027-Sep-11 00:00:00.0000, -1.261937603708945E+08, 3.682591686673201E+08, 2.769413384548149E+07,
2461666.500000000, A.D. 2027-Sep-18 00:00:00.0000, -1.353708334182200E+08, 3.623889127591705E+08, 3.006005550387238E+07,
2461673.500000000, A.D. 2027-Sep-25 00:00:00.0000, -1.444354452778456E+08, 3.562175025761716E+08, 3.240098787066443E+07,
2461680.500000000, A.D. 2027-Oct-02 00:00:00.0000, -1.533779407501469E+08, 3.497448252787123E+08, 3.471450826098220E+07,
2461687.500000000, A.D. 2027-Oct-09 00:00:00.0000, -1.621884375672134E+08, 3.429710587019262E+08, 3.699813377802144E+07,
2461694.500000000, A.D. 2027-Oct-16 00:00:00.0000, -1.708568284132339E+08, 3.358966915676087E+08, 3.924932159071231E+07,
2461701.500000000, A.D. 2027-Oct-23 00:00:00.0000, -1.793727837846149E+08, 3.285225444762517E+08, 4.146546945326580E+07,
2461708.500000000, A.D. 2027-Oct-30 00:00:00.0000, -1.877257554451704E+08, 3.208497922659106E+08, 4.364391651474990E+07,
2461715.500000000, A.D. 2027-Nov-06 00:00:00.0000, -1.959049817788506E+08, 3.128799888320086E+08, 4.578194465255976E+07,
2461722.500000000, A.D. 2027-Nov-13 00:00:00.0000, -2.038994971695229E+08, 3.046150922865189E+08, 4.787678037926205E+07,
2461729.500000000, A.D. 2027-Nov-20 00:00:00.0000, -2.116981426511773E+08, 2.960574882029672E+08, 4.992559691590515E+07,
2461736.500000000, A.D. 2027-Nov-27 00:00:00.0000, -2.192895763680141E+08, 2.872100138230133E+08, 5.192551656522165E+07,
2461743.500000000, A.D. 2027-Dec-04 00:00:00.0000, -2.266622860326865E+08, 2.780759840394359E+08, 5.387361368696962E+07,
2461750.500000000, A.D. 2027-Dec-11 00:00:00.0000, -2.338046040950902E+08, 2.686592180706522E+08, 5.576691828961875E+07,
2461757.500000000, A.D. 2027-Dec-18 00:00:00.0000, -2.407047255082851E+08, 2.589640663392881E+08, 5.760242022790204E+07,
2461764.500000000, A.D. 2027-Dec-25 00:00:00.0000, -2.473507281005295E+08, 2.489954373783645E+08, 5.937707403445801E+07,
2461771.500000000, A.D. 2028-Jan-01 00:00:00.0000, -2.537305956687394E+08, 2.387588245785529E+08, 6.108780442457572E+07,
$$EOE